NORAD_CAT_ID,OBJECT_NAME,OBJECT_TYPE,EPOCH,MEAN_MOTION,ECCENTRICITY,INCLINATION,RA_OF_ASC_NODE,ARG_OF_PERICENTER,MEAN_ANOMALY,BSTAR,MEAN_MOTION_DOT,MEAN_MOTION_DDOT,TLE_LINE0,TLE_LINE1,TLE_LINE2,SEMIMAJOR_AXIS,PERIOD,APOGEE,PERIGEE,DECAYED
55663.0,STARLINK-5473,PAYLOAD,2024-03-03 14:03:26,14.9833049,0.000315,69.9991,220.4183,268.108,91.9718,0.00020955,2.408e-05,0.0,0 STARLINK-5473,1 55663U 23021AM  24063.58572830  .00002408  00000-0  20955-3 0  9994,2 55663  69.9991 220.4183 0003150 268.1080  91.9718 14.98330490 59026,6950.191,96.107,574.246,569.867,0.0
55663.0,STARLINK-5473,PAYLOAD,2024-03-03 20:27:58,14.98337563,0.0003149,69.9992,219.7452,268.3053,91.7745,0.00023159,2.672e-05,0.0,0 STARLINK-5473,1 55663U 23021AM  24063.85276261  .00002672  00000-0  23159-3 0  9995,2 55663  69.9992 219.7452 0003149 268.3053  91.7745 14.98337563 59067,6950.17,96.107,574.223,569.846,0.0
55663.0,STARLINK-5473,PAYLOAD,2024-03-04 12:29:19,14.98342441,0.0002873,69.9992,218.0614,262.898,97.1852,0.00010283,1.135e-05,0.0,0 STARLINK-5473,1 55663U 23021AM  24064.52035981  .00001135  00000-0  10283-3 0  9999,2 55663  69.9992 218.0614 0002873 262.8980  97.1852 14.98342441 58867,6950.154,96.106,574.016,570.023,0.0
55663.0,STARLINK-5473,PAYLOAD,2024-03-04 14:05:27,14.9834195,0.0002939,69.9993,217.8931,263.9643,96.1181,9.8448e-05,1.082e-05,0.0,0 STARLINK-5473,1 55663U 23021AM  24064.58711961  .00001082  00000-0  98448-4 0  9995,2 55663  69.9993 217.8931 0002939 263.9643  96.1181 14.98341950 59171,6950.156,96.106,574.064,569.978,0.0
55663.0,STARLINK-5473,PAYLOAD,2024-03-04 20:29:58,14.98345063,0.0003185,69.9994,217.2204,272.6884,87.3911,0.00012305,1.376e-05,0.0,0 STARLINK-5473,1 55663U 23021AM  24064.85415508  .00001376  00000-0  12305-3 0  9996,2 55663  69.9994 217.2204 0003185 272.6884  87.3911 14.98345063 59214,6950.146,96.106,574.225,569.798,0.0
55663.0,STARLINK-5473,PAYLOAD,2024-03-05 14:07:29,14.98327243,0.0003183,69.9997,215.3693,272.7403,87.3391,-0.00017825,-2.219e-05,0.0,0 STARLINK-5473,1 55663U 23021AM  24065.58853433 -.00002219  00000-0 -17825-3 0  9991,2 55663  69.9997 215.3693 0003183 272.7403  87.3391 14.98327243 59328,6950.201,96.107,574.279,569.854,0.0
55663.0,STARLINK-5473,PAYLOAD,2024-03-05 18:55:53,14.98329299,0.0003125,69.9993,214.8638,271.1752,88.9049,-0.00016788,-2.096e-05,0.0,0 STARLINK-5473,1 55663U 23021AM  24065.78881240 -.00002096  00000-0 -16788-3 0  9990,2 55663  69.9993 214.8638 0003125 271.1752  88.9049 14.98329299 59053,6950.195,96.107,574.232,569.888,0.0
55663.0,STARLINK-5473,PAYLOAD,2024-03-06 10:57:13,14.98333458,0.0002771,70.0009,213.1836,262.1156,97.9688,-7.8642e-05,-1.031e-05,0.0,0 STARLINK-5473,1 55663U 23021AM  24066.45640569 -.00001031  00000-0 -78642-4 0  9998,2 55663  70.0009 213.1836 0002771 262.1156  97.9688 14.98333458 59152,6950.182,96.107,573.973,570.121,0.0
55663.0,STARLINK-5473,PAYLOAD,2024-03-06 14:09:29,14.98333046,0.0002766,70.001,212.8473,261.6239,98.4606,-7.5035e-05,-9.88e-06,0.0,0 STARLINK-5473,1 55663U 23021AM  24066.58992565 -.00000988  00000-0 -75035-4 0  9991,2 55663  70.0010 212.8473 0002766 261.6239  98.4606 14.98333046 59471,6950.183,96.107,573.971,570.126,0.0
55663.0,STARLINK-5473,PAYLOAD,2024-03-07 14:11:30,14.9832333,0.0002837,70.0004,210.3207,266.2692,93.8143,0.00011263,1.251e-05,0.0,0 STARLINK-5473,1 55663U 23021AM  24067.59132697  .00001251  00000-0  11263-3 0  9999,2 55663  70.0004 210.3207 0002837 266.2692  93.8143 14.98323330 59622,6950.214,96.107,574.05,570.107,0.0
55663.0,STARLINK-5473,PAYLOAD,2024-03-08 12:37:21,14.9835294,0.0003086,69.9999,207.9636,270.2163,89.8643,0.00020147,2.313e-05,0.0,0 STARLINK-5473,1 55663U 23021AM  24068.52593984  .00002313  00000-0  20147-3 0  9994,2 55663  69.9999 207.9636 0003086 270.2163  89.8643 14.98352940 59466,6950.122,96.106,574.132,569.842,0.0
55663.0,STARLINK-5473,PAYLOAD,2024-03-08 19:01:55,14.98322135,0.000314,69.9995,207.2904,273.3126,86.7673,-0.00016156,-2.02e-05,0.0,0 STARLINK-5473,1 55663U 23021AM  24068.79300901 -.00002020  00000-0 -16156-3 0  9990,2 55663  69.9995 207.2904 0003140 273.3126  86.7673 14.98322135 59504,6950.217,96.108,574.265,569.9,0.0
55663.0,STARLINK-5473,PAYLOAD,2024-03-09 12:39:24,14.98323723,0.0003006,70.0003,205.4393,273.3994,86.6822,-9.489e-05,-1.225e-05,0.0,0 STARLINK-5473,1 55663U 23021AM  24069.52736927 -.00001225  00000-0 -94890-4 0  9991,2 55663  70.0003 205.4393 0003006 273.3994  86.6822 14.98323723 59917,6950.212,96.107,574.167,569.988,0.0
55663.0,STARLINK-5473,PAYLOAD,2024-03-09 19:03:56,14.9832842,0.000291,70.0001,204.7653,272.4523,87.6303,-4.0147e-05,-5.72e-06,0.0,0 STARLINK-5473,1 55663U 23021AM  24069.79440514 -.00000572  00000-0 -40147-4 0  9994,2 55663  70.0001 204.7653 0002910 272.4523  87.6303 14.98328420 59652,6950.198,96.107,574.085,570.04,0.0
55663.0,STARLINK-5473,PAYLOAD,2024-03-10 11:05:17,14.98336886,0.0002909,69.9998,203.0816,269.337,90.7455,-0.00023161,-2.856e-05,0.0,0 STARLINK-5473,1 55663U 23021AM  24070.46200325 -.00002856  00000-0 -23161-3 0  9997,2 55663  69.9998 203.0816 0002909 269.3370  90.7455 14.98336886 60054,6950.172,96.107,574.058,570.015,0.0
55663.0,STARLINK-5473,PAYLOAD,2024-03-10 19:05:56,14.98347134,0.0002798,69.9999,202.2402,271.673,88.4109,-0.00033949,-4.143e-05,0.0,0 STARLINK-5473,1 55663U 23021AM  24070.79579833 -.00004143  00000-0 -33949-3 0  9992,2 55663  69.9999 202.2402 0002798 271.6730  88.4109 14.98347134 59808,6950.14,96.106,573.95,570.06,0.0
55663.0,STARLINK-5473,PAYLOAD,2024-03-11 01:30:29,14.98321947,0.00028,69.9999,201.5671,271.3889,88.695,0.00011223,1.246e-05,0.0,0 STARLINK-5473,1 55663U 23021AM  24071.06284519  .00001246  00000-0  11223-3 0  9997,2 55663  69.9999 201.5671 0002800 271.3889  88.6950 14.98321947 59848,6950.218,96.108,574.029,570.137,0.0
55663.0,STARLINK-5473,PAYLOAD,2024-03-11 11:07:18,14.98328434,0.0002744,69.9999,200.5571,269.7315,90.353,8.5053e-05,9.22e-06,0.0,0 STARLINK-5473,1 55663U 23021AM  24071.46340339  .00000922  00000-0  85053-4 0  9997,2 55663  69.9999 200.5571 0002744 269.7315  90.3530 14.98328434 60202,6950.198,96.107,573.97,570.156,0.0
55663.0,STARLINK-5473,PAYLOAD,2024-03-11 19:07:58,14.98329811,0.0002751,69.9999,199.7151,272.1276,87.9568,8.8952e-05,9.69e-06,0.0,0 STARLINK-5473,1 55663U 23021AM  24071.79720279  .00000969  00000-0  88952-4 0  9990,2 55663  69.9999 199.7151 0002751 272.1276  87.9568 14.98329811 59950,6950.193,96.107,573.97,570.146,0.0
55663.0,STARLINK-5473,PAYLOAD,2024-03-12 14:21:35,14.98330767,0.0002812,69.9997,197.6963,267.5931,92.4907,2.4698e-05,2.02e-06,0.0,0 STARLINK-5473,1 55663U 23021AM  24072.59832378  .00000202  00000-0  24698-4 0  9990,2 55663  69.9997 197.6963 0002812 267.5931  92.4907 14.98330767 60378,6950.191,96.107,574.01,570.101,0.0
55663.0,STARLINK-5473,PAYLOAD,2024-03-13 01:34:31,14.98330581,0.0002812,69.9994,196.5178,268.9044,91.1793,2.7723e-05,2.38e-06,0.0,0 STARLINK-5473,1 55663U 23021AM  24073.06564327  .00000238  00000-0  27723-4 0  9990,2 55663  69.9994 196.5178 0002812 268.9044  91.1793 14.98330581 60149,6950.191,96.107,574.01,570.102,0.0
55663.0,STARLINK-5473,PAYLOAD,2024-03-13 11:11:19,14.98333182,0.0002819,70.0,195.5081,268.5786,91.505,2.0302e-05,1.49e-06,0.0,0 STARLINK-5473,1 55663U 23021AM  24073.46620113  .00000149  00000-0  20302-4 0  9997,2 55663  70.0000 195.5081 0002819 268.5786  91.5050 14.98333182 60508,6950.183,96.107,574.007,570.089,0.0
55663.0,STARLINK-5473,PAYLOAD,2024-03-14 11:13:21,14.98317387,0.0002963,69.9996,192.9823,272.3551,87.7268,-0.00017995,-2.239e-05,0.0,0 STARLINK-5473,1 55663U 23021AM  24074.46760941 -.00002239  00000-0 -17995-3 0  9999,2 55663  69.9996 192.9823 0002963 272.3551  87.7268 14.98317387 60357,6950.232,96.108,574.156,570.038,0.0
55663.0,STARLINK-5473,PAYLOAD,2024-03-14 17:37:53,14.98318379,0.0002804,69.9996,192.3091,268.6503,91.4335,-0.00016132,-2.017e-05,0.0,0 STARLINK-5473,1 55663U 23021AM  24074.73464970 -.00002017  00000-0 -16132-3 0  9998,2 55663  69.9996 192.3091 0002804 268.6503  91.4335 14.98318379 60693,6950.229,96.108,574.043,570.145,0.0
55663.0,STARLINK-5473,PAYLOAD,2024-03-15 11:15:21,14.98325523,0.0003254,69.9994,190.4573,273.4577,86.621,-1.8029e-05,-3.08e-06,0.0,0 STARLINK-5473,1 55663U 23021AM  24075.46900303 -.00000308  00000-0 -18029-4 0  9993,2 55663  69.9994 190.4573 0003254 273.4577  86.6210 14.98325523 60507,6950.207,96.107,574.333,569.81,0.0
55663.0,STARLINK-5473,PAYLOAD,2024-03-15 17:39:52,14.9839936,0.0002257,69.9983,189.7823,233.2384,126.8568,-0.0010711,-0.00012872,0.0,0 STARLINK-5473,1 55663U 23021AM  24075.73601907 -.00012872  00000-0 -10711-2 0  9998,2 55663  69.9983 189.7823 0002257 233.2384 126.8568 14.98399360 60543,6949.978,96.103,573.412,570.275,0.0
55663.0,STARLINK-5473,PAYLOAD,2024-03-16 11:17:23,14.98315336,0.0002661,69.9989,187.9299,262.3702,97.7155,0.00011061,1.227e-05,0.0,0 STARLINK-5473,1 55663U 23021AM  24076.47040580  .00001227  00000-0  11061-3 0  9994,2 55663  69.9989 187.9299 0002661 262.3702  97.7155 14.98315336 60653,6950.238,96.108,573.953,570.254,0.0
55663.0,STARLINK-5473,PAYLOAD,2024-03-16 14:29:39,14.98314103,0.0002612,70.0007,187.5976,264.2352,95.851,9.4116e-05,1.03e-05,0.0,0 STARLINK-5473,1 55663U 23021AM  24076.60392878  .00001030  00000-0  94116-4 0  9994,2 55663  70.0007 187.5976 0002612 264.2352  95.8510 14.98314103 60973,6950.242,96.108,573.922,570.292,0.0
55663.0,STARLINK-5473,PAYLOAD,2024-03-16 17:41:55,14.98316037,0.0002566,70.0012,187.2621,264.4783,95.6083,0.00011162,1.239e-05,0.0,0 STARLINK-5473,1 55663U 23021AM  24076.73744834  .00001239  00000-0  11162-3 0  9991,2 55663  70.0012 187.2621 0002566 264.4783  95.6083 14.98316037 60994,6950.236,96.108,573.885,570.318,0.0
55663.0,STARLINK-5473,PAYLOAD,2024-03-17 11:19:23,14.98329444,0.0002825,70.0005,185.4096,265.8589,94.2247,3.7867e-06,-4.8e-07,0.0,0 STARLINK-5473,1 55663U 23021AM  24077.47180458 -.00000048  00000-0  37867-5 0  9999,2 55663  70.0005 185.4096 0002825 265.8589  94.2247 14.98329444 60802,6950.195,96.107,574.023,570.096,0.0
